[{"OBJECT_NAME":"CHECKMATE 6","OBJECT_ID":"2023-050D","EPOCH":"2026-03-09T16:53:29.113152","MEAN_MOTION":13.85137689,"ECCENTRICITY":0.00066075,"INCLINATION":81.0077,"RA_OF_ASC_NODE":167.3603,"ARG_OF_PERICENTER":211.3353,"MEAN_ANOMALY":148.741,"EPHEMERIS_TYPE":0,"CLASSIFICATION_TYPE":"U","NORAD_CAT_ID":56165,"ELEMENT_SET_NO":999,"REV_AT_EPOCH":14832,"BSTAR":0.00014178422,"MEAN_MOTION_DOT":1.72e-6,"MEAN_MOTION_DDOT":0},{"OBJECT_NAME":"COSMOS 952","OBJECT_ID":"1977-088A","EPOCH":"2026-03-09T23:20:00.090528","MEAN_MOTION":13.83739179,"ECCENTRICITY":0.0034808,"INCLINATION":64.9375,"RA_OF_ASC_NODE":32.6758,"ARG_OF_PERICENTER":39.5332,"MEAN_ANOMALY":320.8257,"EPHEMERIS_TYPE":0,"CLASSIFICATION_TYPE":"U","NORAD_CAT_ID":10358,"ELEMENT_SET_NO":999,"REV_AT_EPOCH":44945,"BSTAR":2.5341237e-5,"MEAN_MOTION_DOT":-6.1e-7,"MEAN_MOTION_DDOT":0}]
